NAVSTAR 48 (USA 151)    
1 26407U 00040A   26196.69000689  .00000047  00000+0  00000+0 0  9994
2 26407  54.8484 214.0300 0120503 302.7446  41.0255  2.00557849190514
NAVSTAR 51 (USA 166)    
1 27663U 03005A   26196.04064617  .00000055  00000+0  00000+0 0  9992
2 27663  54.8790 213.8621 0148260  53.1643 317.9451  2.00559020171872
NAVSTAR 54 (USA 177)    
1 28190U 04009A   26196.32288520 -.00000017  00000+0  00000+0 0  9994
2 28190  54.8064 274.5493 0117190 174.3466 193.0919  2.00553680163510
NAVSTAR 56 (USA 180)    
1 28474U 04045A   26196.25218367 -.00000092  00000+0  00000+0 0  9996
2 28474  55.1181 323.7660 0170184 317.0606  64.4184  2.00557037158997
NAVSTAR 57 (USA 183)    
1 28874U 05038A   26196.28180978 -.00000012  00000+0  00000+0 0  9994
2 28874  54.8554 272.0424 0128213 296.4161  71.0695  2.00563676152404
INMARSAT 4-F2           
1 28899U 05044A   26196.94168116 -.00000273  00000+0  00000+0 0  9990
2 28899   5.1322  43.6625 0002753  61.8888 310.7253  1.00270684 75813
NAVSTAR 58 (USA 190)    
1 29486U 06042A   26196.92688053  .00000016  00000+0  00000+0 0  9991
2 29486  54.7129 150.1979 0107211  55.1773 317.0416  2.00568164144970
NAVSTAR 59 (USA 192)    
1 29601U 06052A   26196.83798155  .00000046  00000+0  00000+0 0  9999
2 29601  54.9322 212.8704 0084739  91.0004 270.0084  2.00559692143988
NAVSTAR 60 (USA 196)    
1 32260U 07047A   26195.64790426 -.00000033  00000+0  00000+0 0  9997
2 32260  54.1153  78.9337 0167775  87.9759 274.0038  2.00553904137361
COSMOS 2433 [GLONASS-M] 
1 32275U 07052A   26195.60182846 -.00000063  00000+0  00000+0 0  9999
2 32275  65.5599 315.0115 0003476 203.4693 156.5222  2.13104145145647
COSMOS 2432 [GLONASS-M] 
1 32276U 07052B   26195.61309976 -.00000064  00000+0  00000+0 0  9997
2 32276  65.5760 315.1395 0007406 322.2973 350.1210  2.13103094145660
NAVSTAR 61 (USA 199)    
1 32384U 07062A   26195.95084859 -.00000011  00000+0  00000+0 0  9997
2 32384  55.0097 273.0354 0036056 167.4938 179.2057  2.00561560136062
COSMOS 2434 [GLONASS-M] 
1 32393U 07065A   26196.39612509  .00000054  00000+0  00000+0 0  9994
2 32393  64.3200 190.9641 0001276 327.5918 171.4568  2.13101170144375
COSMOS 2436 [GLONASS-M] 
1 32395U 07065C   26196.18930753  .00000056  00000+0  00000+0 0  9999
2 32395  64.3286 191.0436 0017314 353.5207 119.0574  2.13099957144324
NAVSTAR 62 (USA 201)    
1 32711U 08012A   26196.05515907  .00000009  00000+0  00000+0 0  9998
2 32711  54.5001 148.8115 0211671 248.1491 109.5471  2.00573098134319
NAVSTAR 64 (USA 206)    
1 35752U 09043A   26195.56009198 -.00000068  00000+0  00000+0 0  9992
2 35752  56.2274  26.3776 0053730  84.3592 285.8100  2.00552733123917
COSMOS 2456 [GLONASS-M] 
1 36111U 09070A   26196.71267663 -.00000014  00000+0  00000+0 0  9994
2 36111  65.0279  69.9996 0003623 341.0176 199.1852  2.13103582129032
COSMOS 2457 [GLONASS-M] 
1 36112U 09070B   26194.19579927 -.00000012  00000+0  00000+0 0  9992
2 36112  65.0120  69.9289 0004075 121.6619  54.8410  2.13101172128982
COSMOS 2460 [GLONASS-M] 
1 36402U 10007C   26195.40307670 -.00000062  00000+0  00000+0 0  9990
2 36402  65.4032 313.5463 0001835 143.6915 240.9432  2.13101628127310
NAVSTAR 65 (USA 213)    
1 36585U 10022A   26196.37400053  .00000049  00000+0  00000+0 0  9999
2 36585  54.2685 207.4265 0126723  66.1541 291.5416  2.00563746118156
BEIDOU-2 IGSO-1         
1 36828U 10036A   26195.91730701 -.00000122  00000+0  00000+0 0  9992
2 36828  54.3063 162.7092 0059022 225.2803 342.1032  1.00264343 58378
BEIDOU-2 IGSO-2         
1 37256U 10068A   26196.64956755 -.00000192  00000+0  00000+0 0  9990
2 37256  47.4956 271.4764 0056901 213.8035 150.3630  1.00272942 57089
BEIDOU-2 IGSO-3         
1 37384U 11013A   26196.50661554 -.00000166  00000+0  00000+0 0  9999
2 37384  62.4464  39.8847 0035199 183.4921 358.8227  1.00260311 55949
GSAT-8                  
1 37605U 11022A   26196.92443440  .00000073  00000+0  00000+0 0  9999
2 37605   2.2034  81.4692 0002624 161.3368  78.8429  1.00272023 53504
BEIDOU-2 IGSO-4         
1 37763U 11038A   26193.91136250 -.00000017  00000+0  00000+0 0  9994
2 37763  54.6038 165.4445 0160342 231.4539 316.2369  1.00279714 54905
GSAT0101 (GALILEO-PFM)  
1 37846U 11060A   26196.59103932 -.00000101  00000+0  00000+0 0  9993
2 37846  56.9841 340.9916 0002223  61.9424 298.0655  1.70475567 91603
GSAT0102 (GALILEO-FM2)  
1 37847U 11060B   26196.51364557 -.00000101  00000+0  00000+0 0  9998
2 37847  56.9849 340.9943 0002108   7.4765 350.6813  1.70475846 91608
COSMOS 2476 [GLONASS-M] 
1 37867U 11064A   26196.35384911 -.00000010  00000+0  00000+0 0  9991
2 37867  65.2857  71.9211 0022148 235.9971 297.2476  2.13103719114369
COSMOS 2477 [GLONASS-M] 
1 37868U 11064B   26196.15395625 -.00000010  00000+0  00000+0 0  9994
2 37868  65.2921  72.0075 0019117 236.8947 323.2552  2.13102912114355
COSMOS 2475 [GLONASS-M] 
1 37869U 11064C   26196.23138681 -.00000010  00000+0  00000+0 0  9991
2 37869  65.2989  72.0268 0024840 251.2449 323.3113  2.13101755114360
